CCSDS_OMM_VERS = 2.0
CREATION_DATE  = 
ORIGINATOR     = 

OBJECT_NAME    = STARLINK-36332
OBJECT_ID      = 2026-034N
CENTER_NAME    = EARTH
REF_FRAME      = TEME
TIME_SYSTEM    = UTC
MEAN_ELEMENT_THEORY = SGP/SGP4

EPOCH          = 2026-03-21T13:04:18.692256
MEAN_MOTION    = 15.80938116
ECCENTRICITY   = .00004991
INCLINATION    = 53.1573
RA_OF_ASC_NODE = 151.8386
ARG_OF_PERICENTER = 96.4590
MEAN_ANOMALY   = 263.6490

EPHEMERIS_TYPE = 0
CLASSIFICATION_TYPE = U
NORAD_CAT_ID   = 67862
ELEMENT_SET_NO = 999
REV_AT_EPOCH   = 581
BSTAR          = .12647314E-2
MEAN_MOTION_DOT = .257276E-2
MEAN_MOTION_DDOT = 0

CCSDS_OMM_VERS = 2.0
CREATION_DATE  = 
ORIGINATOR     = 

OBJECT_NAME    = STARLINK-36835
OBJECT_ID      = 2026-034P
CENTER_NAME    = EARTH
REF_FRAME      = TEME
TIME_SYSTEM    = UTC
MEAN_ELEMENT_THEORY = SGP/SGP4

EPOCH          = 2026-03-21T11:32:11.435424
MEAN_MOTION    = 15.80921271
ECCENTRICITY   = .00011694
INCLINATION    = 53.1588
RA_OF_ASC_NODE = 152.1497
ARG_OF_PERICENTER = 92.6396
MEAN_ANOMALY   = 267.4761

EPHEMERIS_TYPE = 0
CLASSIFICATION_TYPE = U
NORAD_CAT_ID   = 67863
ELEMENT_SET_NO = 999
REV_AT_EPOCH   = 580
BSTAR          = .77787598E-3
MEAN_MOTION_DOT = .155978E-2
MEAN_MOTION_DDOT = 0

CCSDS_OMM_VERS = 2.0
CREATION_DATE  = 
ORIGINATOR     = 

OBJECT_NAME    = STARLINK-36831
OBJECT_ID      = 2026-034Q
CENTER_NAME    = EARTH
REF_FRAME      = TEME
TIME_SYSTEM    = UTC
MEAN_ELEMENT_THEORY = SGP/SGP4

EPOCH          = 2026-03-21T11:31:06.994848
MEAN_MOTION    = 15.80951416
ECCENTRICITY   = .00020817
INCLINATION    = 53.1584
RA_OF_ASC_NODE = 152.1452
ARG_OF_PERICENTER = 65.7642
MEAN_ANOMALY   = 294.3598

EPHEMERIS_TYPE = 0
CLASSIFICATION_TYPE = U
NORAD_CAT_ID   = 67864
ELEMENT_SET_NO = 999
REV_AT_EPOCH   = 580
BSTAR          = .13952223E-2
MEAN_MOTION_DOT = .284984E-2
MEAN_MOTION_DDOT = 0

CCSDS_OMM_VERS = 2.0
CREATION_DATE  = 
ORIGINATOR     = 

OBJECT_NAME    = STARLINK-36738
OBJECT_ID      = 2026-034R
CENTER_NAME    = EARTH
REF_FRAME      = TEME
TIME_SYSTEM    = UTC
MEAN_ELEMENT_THEORY = SGP/SGP4

EPOCH          = 2026-03-21T14:32:06.650592
MEAN_MOTION    = 15.80946678
ECCENTRICITY   = .00014338
INCLINATION    = 53.1585
RA_OF_ASC_NODE = 151.5063
ARG_OF_PERICENTER = 79.5716
MEAN_ANOMALY   = 280.5469

EPHEMERIS_TYPE = 0
CLASSIFICATION_TYPE = U
NORAD_CAT_ID   = 67865
ELEMENT_SET_NO = 999
REV_AT_EPOCH   = 582
BSTAR          = .15147811E-2
MEAN_MOTION_DOT = .310315E-2
MEAN_MOTION_DDOT = 0

CCSDS_OMM_VERS = 2.0
CREATION_DATE  = 
ORIGINATOR     = 

OBJECT_NAME    = STARLINK-36780
OBJECT_ID      = 2026-034S
CENTER_NAME    = EARTH
REF_FRAME      = TEME
TIME_SYSTEM    = UTC
MEAN_ELEMENT_THEORY = SGP/SGP4

EPOCH          = 2026-03-21T11:28:57.216000
MEAN_MOTION    = 15.80932771
ECCENTRICITY   = .00008873
INCLINATION    = 53.1585
RA_OF_ASC_NODE = 152.1348
ARG_OF_PERICENTER = 53.9510
MEAN_ANOMALY   = 306.1595

EPHEMERIS_TYPE = 0
CLASSIFICATION_TYPE = U
NORAD_CAT_ID   = 67866
ELEMENT_SET_NO = 999
REV_AT_EPOCH   = 580
BSTAR          = .11702803E-2
MEAN_MOTION_DOT = .237392E-2
MEAN_MOTION_DDOT = 0

CCSDS_OMM_VERS = 2.0
CREATION_DATE  = 
ORIGINATOR     = 

OBJECT_NAME    = STARLINK-36761
OBJECT_ID      = 2026-034T
CENTER_NAME    = EARTH
REF_FRAME      = TEME
TIME_SYSTEM    = UTC
MEAN_ELEMENT_THEORY = SGP/SGP4

EPOCH          = 2026-03-21T11:27:52.227648
MEAN_MOTION    = 15.80931392
ECCENTRICITY   = .00019397
INCLINATION    = 53.1589
RA_OF_ASC_NODE = 152.1290
ARG_OF_PERICENTER = 98.6453
MEAN_ANOMALY   = 261.4789

EPHEMERIS_TYPE = 0
CLASSIFICATION_TYPE = U
NORAD_CAT_ID   = 67867
ELEMENT_SET_NO = 999
REV_AT_EPOCH   = 580
BSTAR          = .10282409E-2
MEAN_MOTION_DOT = .207761E-2
MEAN_MOTION_DDOT = 0

CCSDS_OMM_VERS = 2.0
CREATION_DATE  = 
ORIGINATOR     = 

OBJECT_NAME    = STARLINK-36762
OBJECT_ID      = 2026-034U
CENTER_NAME    = EARTH
REF_FRAME      = TEME
TIME_SYSTEM    = UTC
MEAN_ELEMENT_THEORY = SGP/SGP4

EPOCH          = 2026-03-21T11:26:47.387904
MEAN_MOTION    = 15.80881472
ECCENTRICITY   = .00015134
INCLINATION    = 53.1583
RA_OF_ASC_NODE = 152.1242
ARG_OF_PERICENTER = 87.0137
MEAN_ANOMALY   = 273.1059

EPHEMERIS_TYPE = 0
CLASSIFICATION_TYPE = U
NORAD_CAT_ID   = 67868
ELEMENT_SET_NO = 999
REV_AT_EPOCH   = 580
BSTAR          = .1444163E-2
MEAN_MOTION_DOT = .294377E-2
MEAN_MOTION_DDOT = 0

CCSDS_OMM_VERS = 2.0
CREATION_DATE  = 
ORIGINATOR     = 

OBJECT_NAME    = STARLINK-36779
OBJECT_ID      = 2026-034V
CENTER_NAME    = EARTH
REF_FRAME      = TEME
TIME_SYSTEM    = UTC
MEAN_ELEMENT_THEORY = SGP/SGP4

EPOCH          = 2026-03-21T11:25:42.710592
MEAN_MOTION    = 15.80924551
ECCENTRICITY   = .00011549
INCLINATION    = 53.1598
RA_OF_ASC_NODE = 152.1192
ARG_OF_PERICENTER = 110.8806
MEAN_ANOMALY   = 249.2341

EPHEMERIS_TYPE = 0
CLASSIFICATION_TYPE = U
NORAD_CAT_ID   = 67869
ELEMENT_SET_NO = 999
REV_AT_EPOCH   = 580
BSTAR          = .8862173E-3
MEAN_MOTION_DOT = .178292E-2
MEAN_MOTION_DDOT = 0

CCSDS_OMM_VERS = 2.0
CREATION_DATE  = 
ORIGINATOR     = 

OBJECT_NAME    = STARLINK-36770
OBJECT_ID      = 2026-034W
CENTER_NAME    = EARTH
REF_FRAME      = TEME
TIME_SYSTEM    = UTC
MEAN_ELEMENT_THEORY = SGP/SGP4

EPOCH          = 2026-03-21T09:52:30.798048
MEAN_MOTION    = 15.80869910
ECCENTRICITY   = .00021048
INCLINATION    = 53.1584
RA_OF_ASC_NODE = 152.4249
ARG_OF_PERICENTER = 25.6145
MEAN_ANOMALY   = 334.4982

EPHEMERIS_TYPE = 0
CLASSIFICATION_TYPE = U
NORAD_CAT_ID   = 67870
ELEMENT_SET_NO = 999
REV_AT_EPOCH   = 579
BSTAR          = .15588935E-2
MEAN_MOTION_DOT = .318554E-2
MEAN_MOTION_DDOT = 0

CCSDS_OMM_VERS = 2.0
CREATION_DATE  = 
ORIGINATOR     = 

OBJECT_NAME    = STARLINK-36769
OBJECT_ID      = 2026-034X
CENTER_NAME    = EARTH
REF_FRAME      = TEME
TIME_SYSTEM    = UTC
MEAN_ELEMENT_THEORY = SGP/SGP4

EPOCH          = 2026-03-21T11:24:38.225952
MEAN_MOTION    = 15.80861645
ECCENTRICITY   = .00015735
INCLINATION    = 53.1588
RA_OF_ASC_NODE = 152.1137
ARG_OF_PERICENTER = 92.4524
MEAN_ANOMALY   = 267.6679

EPHEMERIS_TYPE = 0
CLASSIFICATION_TYPE = U
NORAD_CAT_ID   = 67871
ELEMENT_SET_NO = 999
REV_AT_EPOCH   = 580
BSTAR          = .20584227E-2
MEAN_MOTION_DOT = .426038E-2
MEAN_MOTION_DDOT = 0

CCSDS_OMM_VERS = 2.0
CREATION_DATE  = 
ORIGINATOR     = 

OBJECT_NAME    = STARLINK-36786
OBJECT_ID      = 2026-034Y
CENTER_NAME    = EARTH
REF_FRAME      = TEME
TIME_SYSTEM    = UTC
MEAN_ELEMENT_THEORY = SGP/SGP4

EPOCH          = 2026-03-21T11:22:28.564608
MEAN_MOTION    = 15.80869886
ECCENTRICITY   = .00023902
INCLINATION    = 53.1583
RA_OF_ASC_NODE = 152.1037
ARG_OF_PERICENTER = 103.6719
MEAN_ANOMALY   = 256.4570

EPHEMERIS_TYPE = 0
CLASSIFICATION_TYPE = U
NORAD_CAT_ID   = 67872
ELEMENT_SET_NO = 999
REV_AT_EPOCH   = 580
BSTAR          = .22177445E-2
MEAN_MOTION_DOT = .461131E-2
MEAN_MOTION_DDOT = 0

CCSDS_OMM_VERS = 2.0
CREATION_DATE  = 
ORIGINATOR     = 

OBJECT_NAME    = STARLINK-36783
OBJECT_ID      = 2026-034Z
CENTER_NAME    = EARTH
REF_FRAME      = TEME
TIME_SYSTEM    = UTC
MEAN_ELEMENT_THEORY = SGP/SGP4

EPOCH          = 2026-03-21T11:21:23.433696
MEAN_MOTION    = 15.80905571
ECCENTRICITY   = .00012828
INCLINATION    = 53.1594
RA_OF_ASC_NODE = 152.0983
ARG_OF_PERICENTER = 79.2345
MEAN_ANOMALY   = 280.8822

EPHEMERIS_TYPE = 0
CLASSIFICATION_TYPE = U
NORAD_CAT_ID   = 67873
ELEMENT_SET_NO = 999
REV_AT_EPOCH   = 580
BSTAR          = .78765382E-3
MEAN_MOTION_DOT = .157868E-2
MEAN_MOTION_DDOT = 0

